name,dba,street,city,state,zip,gridX,gridY
1617 WAZEE STREET LLC ,LODO WELLNESS CENTER ,"1617 Wazee Street, Unit B ",Denver ,CO,80202,,
3-D DENVER'S DISCREET DISPENSARY LLC,3D DISPENSARY AND/OR 3D CANNABIS CENTER,4305 Brighton Boulevard,Denver,CO,80216,,
4 REAL CANNABIS SUPPLY LLC,4 REAL CANNABIS SUPPLY LLC,County Rd 17 Hwy 160,Ft Garland,CO,81133,,
4625 EAST COLFAX LLC,THE CLINIC ON COLFAX,4625 East Colfax Avenue,Denver,CO,80220,,
505 CENTER LLC,505 CENTER LLC,505 West 40th Avenue,Denver,CO,80216,,
5110 RACE LLC,THE SANCTUARY WELLNESS CENTER,5110 Race Street,Denver,CO,80216,,
"5280 WELLNESS, LLC",MMJ AMERICA GOLDEN TRIANGLE,1321 Elati Street,Denver,CO,80204,,
A CUT OFF THE TOP MEDICAL MARIJUANA LLC,,2059 West 9th Avenue,Denver,CO,80204,,
ABSOLUTE MANITOU WELLNESS CENTER LLC,,2 Manitou Avenue,Manitou Springs,CO,80829,,
ABSOLUTE MANITOU WELLNESS CENTER LLC,RESERVE 1 GLENDALE,"4182 East Virginia Street, Unit C",Glendale,CO,80246,,
ACADEMY OF THE HEALING ARTS LLC,HIGH VALLEY HEALING CENTER,"116 South Alder Street, Suite B",Crestone,CO,81131,,
ACADEMY OF THE HEALING ARTS LLC,HIGH VALLEY HEALING ALAMOSA,0711 West Hwy 160,Alamosa,CO,81101,,
ACME DISPENSARY INC,,"309 Bellview Avenue, Unit 1A",Crested Butte,CO,81224,,
ACME HEALING CENTER OF RIDGWAY LLC,,"157 US Highway 550, Suite B",Ridgway,CO,81432,,
ACME SMOKE LLC,MEDICAL TENT,1202 E. Fillmore Street,Colorado Springs,CO,80907,,
ADG HERBAL MEDICINE INC,FROSTED LEAF,"11 West Hampden Avenue, Unit 102",Englewood,CO,80110,,
ADVANCE CURE FOR VERA BESTURA LLC,,"2755 Ore Mill Road, Units 13 &14",Colorado Springs,CO,80904,,
ADVANCED MEDICAL ALTERNATIVES LLC,ADVANCED MEDICAL ALTERNATIVES LLC,1269 Elati Street,Denver,CO,80204,,
AJC INDUSTRIES LLC,FRONT RANGE ALTERNATIVE MEDICINES,5913 North Nevada Avenue,Colorado Springs,CO,80918,,
AJO HOLDINGS LLC,HIGH SOCIETY MEDICAL CANNABIS,920 West 104th Avenue,Northglenn,CO,80234,,
ALCC LLC,NEXT HARVEST WELLNESS,2748 West Alameda Avenue,Denver,CO,80219,,
ALIVE HERBAL MEDICINE,,4573 Pecos Street,Denver,CO,80211,,
ALLGREENS LLC,,762 Kalamath Street,Denver,CO,80204,,
ALPENGLOW BOTANICALS LLC,,"1805 Airport Road, Unit B1C,",Breckenridge,CO,80424,,
ALPINE HERBAL WELLNESS LLC,FROSTED LEAF,445 Federal Boulevard,Denver,CO,80206,,
ALPINE WELLNESS LLC,ALPINE WELLNESS,"300 West Colorado Avenue, 2C-G",Telluride,CO,81435,,
ALTERMEDS LLC,ALTERMEDS,"1156 West Dillon Road, Suite 3",Louisville,CO,80027,,
ALTERNATIVE HOLISTIC HEALING LLC,ALTERNATIVE HOLISTIC HEALING,5412 Hwy 119,Black Hawk,CO,80422,,
ALTERNATIVE MEDICAL REMEDIES,,1450 L Street,Penrose,CO,81240,,
ALTERNATIVE MEDICAL SUPPLIES LLC,,9 Karlann Drive,Black Hawk,CO,80422,,
ALTERNATIVE MEDICINE ON CAPITOL HILL,,1301 Marion Street,Denver,CO,80218,,
ALTERNATIVE MEDICINE ON THE MALL LLC,NATIVE ROOTS APOTHECARY,"910 16th Street, Suite 805",Denver,CO,80202,,
ALTITUDE WELLNESS CENTER LLC,ALTITUDE WELLNESS CENTER LLC,3435 South Yosemite,Denver,CO,80231,,
AMERICAN INDUSTRY LLC,DENVER DAM,4571 N. Ivy Street,Denver,CO,80216,,
AMERICAN WELLNESS CENTER LLC,,329 East Pikes Peak Avenue,Colorado Springs,CO,80907,,
AMERICAN WHOLESALE LLC,PALMER LAKE WELLNESS CENTER,"850 Commercial Lane, Suites 850A & B",Palmer Lake,CO,80133,,
ANCIENT ALTERNATIVES LLC,GREEN TREE MEDICINALS,12625 North 107th Street,Longmont,CO,80501,,
ANIMAS HERBAL WELLNESS CENTER INC,,"1111 Camino Del Rio, Unit 5",Durango,CO,81301,,
ANNIES TOBACCO EMPORIUM LLC,ANNIE'S DISPENSARY,135 Nevada Street,Central City,CO,80427,,
APOTHECARY OF COLORADO LLC,,"10625 East 51st Avenue, Suite 100",Denver,CO,80239,,
AREN & DAVES DREAM LLC,SARGENT GREEN LEAF,1402 Argentine Street,Georgetown,CO,80444,,
AT HOME REMEDIES INC,,4735 West 38th Avenue,Denver,CO,80212,,
BACK TO THE GARDEN HEALTH AND WELLNESS CENTER LLC,BACK TO THE GARDENS,1755 South Broadway,Denver,CO,80210,,
"BALLPARK HOLISTIC DISPENSARY, LLC",BALLPARK HOLISTIC DISPENSARY,"2119 Larimer Street, Suite 1",Denver,CO,80205,,
BEACON WELLNESS GROUP,BEACON WELLNESS GROUP,1740 East Main Street,Cortez,CO,81321,,
BEDDOR CLAUDE LLC,CHRONIC THERAPY,10030 West 27th Avenue,Wheat Ridge,CO,80215,,
BERKELEY MMC LLC,,4103 Sheridan Blvd.,Mountain View,CO,80212,,
BERLIN INTERNATIONAL LLC,CANNIKA,"210 Edwards Village Boulevard, Suite D109",Edwards,CO,81632,,
BEST BUDZ LLC,BEST BUDZ,3729 Austin Bluffs Parkway,Colorado Springs,CO,80918,,
BEYOND BROADWAY LLC,LIVWELL,432 South Broadway,Denver,CO,80209,,
BGOOD VENTURES LLC,BGOOD APOTHECARY,80 South Pennsylvania Street,Denver,CO,80209,,
BIG MEDICINE LLC,BIG MEDICINE CANNABISSARY,2909 North El Paso Street,Colorado Springs,CO,80907,,
BIJOU WELLNESS CENTER LLC,,"2132 East Bijou Street, Suite 114",Colorado Springs,CO,80909,,
BIOCARE INC,PINK HOUSE TAMARAC,3415 South Oleander Court,Denver,CO,80224,,
BIOENERGETIC HEALING CENTER LLC,,"842 North Summit Boulevard, #13",Frisco,CO,80443,,
BND LLC,A CUT ABOVE,3750 Astrozon Blvd #140,Colorado Springs,CO,80910,,
BOLDER VENTURES LTD,PEOPLES CHOICE WELLNESS CENTER,"7464 Arapahoe Avenue, Unit A9",Boulder,CO,80303,,
"BOOM TOWN, LLC",CRESTED BUTTE ALTERNATIVE MEDICINE,"310 Belleview Avenue, Suite 2",Crested Butte,CO,81224,,
BOTANACARE LLC,,"11450 Cherokee Street, Unit A7",Northglenn,CO,80234,,
BOTANICO INC,BOTANICO,3054 Larimer Street,Denver,CO,80205,,
BOTICA DEL SOL,,754 South Broadway,Denver,CO,80209,,
BOULDER COUNTY CAREGIVERS LLC,The Ridge,10185 West 49th Avenue,Wheat Ridge,CO,80033,,
BOULDER TREATMENTS LLC,ROOT ORGANIC MMC,"5420 Arapahoe Road, Suite D",Boulder,CO,80303,,
BOULDER VITAL HERBS LLC,,"2850 Iris Avenue, Suite North",Boulder,CO,80301,,
BOULDER WELLNESS CENTER LLC,,"5420 Arapahoe Avenue, Units E& F",Boulder,CO,80303,,
BRIARGATE WELLNESS CENTER LLC,BRIARGATE WELLNESS CENTER LLC,"890 Dublin Blvd., Suite C",Colorado Springs,CO,80918,,
BUD MED HEALTH CENTERS LLC,,2517 Sheridan Blvd.,Edgewater,CO,80214,,
BUDDIES WELLNESS LLC,,"1270 West Cedar Avenue, Suite A",Denver,CO,80223,,
BUSHES LLC,THE STATION,3005 28th Street,Boulder,CO,80302,,
C^3 COLORADO SPRINGS LLC,PURE INTENTIONS WELLNESS CENTER,201 North Academy Boulevard,Colorado Springs,CO,80909,,
CAM CORP,,2394 South Broadway,Denver,CO,80210,,
CANNA CENTER LLC,CANNA CENTER LLC,5670 East Evans Avenue #216,Denver,CO,80222,,
CANNA KING,CANNA KING,"5740 South College Avenue, Unit B",Fort Collins,CO,80526,,
CANNA MEDS WELLNESS CENTER LLC,,2363 North Academy Boulevard,Colorado Springs,CO,80909,,
CANNABICARE INC,THE CARE,1466 Woolsey Heights,Colorado Springs,CO,80915,,
"CANNABIS CARE WELLNESS CENTER, LLC",,2515 7th Avenue,Garden City,CO,80631,,
"CANNABIS FOR HEALTH, LLC",,285 South Pearl Street,Denver,CO,80209,,
CANNABIS KING LLC,GREENWERKZ,"1131 West Custer Place, Suite A",Denver,CO,80223,,
CAREGIVERS FOR LIFE LLC,,310 Saint Paul Street,Denver,CO,80206,,
CARMIC INVESTMENT LLC,THE GOLDEN GOAT,7801 E. Colfax Avenue,Denver,CO,80220,,
CC GROUP,CANNA CAREGIVERS,"3220 North Academy Boulevard, Suite 4",Colorado Springs,CO,80917,,
CC GROUP,THE CANNA CENTER,"2306 N. Powers Blvd., Suite 100",Colorado Springs,CO,80915,,
CC GROUP LLC,CANNA CAREGIVERS WEST,1914 West Uintah Street,Colorado Springs,CO,80904,,
CG NETWORK LLC,GROUNDSWELL,3121 East Colfax Avenue,Denver,CO,80206,,
CHOICE ORGANICS INC,,"813 SMITHFIELD DRIVE, UNIT A&B",Fort Collins,CO,80524,,
CITI-MED LLC,,1640 East Evans Avenue,Denver,CO,80210,,
CJJ SERVICES LLC,SACRED SEED,5885 East Evans Avenue,Denver,CO,80222,,
CLINIC 5280,CLINIC 5280,"1629 S. Nevada Avenue, Suite B",Colorado Springs,CO,80905,,
CMED LLC,COLOMED CENTER,615 Buggy Circle,Carbondale,CO,81623,,
CNW LLC,ARTISANAL MEDICINALS,2042 South Bannock Street,Denver,CO,80223,,
CO-AGRONOMICS LLC,THE GREEN DEPOT,2020 South Broadway,Denver,CO,80210,,
COLORADO ALTERNATIVE HEALTH CARE LTD,PALISADES HEALTH CARE,125 Peach Ave Unit B,Palisade,CO,81526,,
COLORADO CANNABIS ASSOCIATES LLC,THE SPOT,748 East Industrial Drive,Pueblo West,CO,81007,,
COLORADO CANNABIS COMPANY LLC,PURE MEDICAL DISPENSARY,1133 Bannock Street,Denver,CO,80204,,
COLORADO CANNABIS SERVICES LLC,GREEN CROSS CAREGIVERS,"1842 South Parker Road, Unit 18",Denver,CO,80231,,
COLORADO CARE FACILITY INC,,5130 East Colfax Avenue,Denver,CO,80220,,
COLORADO COLITAS LLC,HERBAL REMEDIES INC,5109 WEST ALAMEDA AVENUE,Denver,CO,80219,,
COLORADO FARMS INC,LIGHTSHADE,11975 East 40th Avenue,Denver,CO,80239,,
COLORADO HEALING LLC,HEADQUARTERS,4497 Ute Hwy,Longmont,CO,80503,,
COLORADO HEALING LLC,HEADQUARTERS,537 Canyon Street,Boulder,CO,80302,,
COLORADO HEALTH CONSULTANTS LLC,STARBUDS,4690 Brighton Boulevard,Denver,CO,80216,,
COLORADO MEDICAL MARIJUANA SUPPLY INC,LEAF ASPEN,"730 E. Cooper Avenue, Suite 2",Aspen,CO,81611,,
COLORADO PRODUCT SERVICES LLC,DOCTOR'S GARDEN,"580 Main Street, Suite 300",Carbondale,CO,81623,,
COLORADO WELLNESS CENTERS LLC,LUSH,2490 West 2nd Avenue,Denver,CO,80223,,
COLORADO WELLNESS INC,,2057 South Broadway,Denver,CO,80210,,
COLORADOS BEST INC,LACONTES CLONE BAR & DISPENSARY,105 East 7th Avenue,Denver,CO,80203,,
COLORADOS BEST INC,LACONTES CLONE BAR + DISPENSARY,5194 Washington Street,Denver,CO,80216,,
COMPASSIONATE CARE GIVERS INC,ROCKY MOUNTAIN HIGH,1233 West Alameda Avenue,Denver,CO,80223,,
COMPASSIONATE CARE GIVERS INC,THE CANNABIS STATION,1201 20th Street,Denver,CO,80202,,
COMPASSIONATE CARE GIVERS INC,ROCKY MOUNTAIN HIGH,1538 Wazee Street,Denver,CO,80202,,
COMPASSIONATE ENTERPRISES LLC,The Clinic on Jewel,12018 West Jewell Avenue,Lakewood,CO,80228,,
COMPASSIONATE ENTERPRISES LLC,THE CLINIC ON WADSWORTH,"3600 South Wadsworth Boulevard, Units D & E",Lakewood,CO,80235,,
COMPASSIONATE PAIN MANAGEMENT LLC,,"1116 West Dillion Road, Unit 7",Louisville,CO,80027,,
COMPLIANCE INITIATIVES LLC,STRAWBERRY FIELDS ALTERNATIVE HEALTH AND WELLNESS,3404 West Colorado Avenue,Colorado Springs,CO,80904,,
COOPER MASON VENTURES 2 LLC,,"520 East Cooper Avenue, Suite LL1",Aspen,CO,81611,,
COOPER MASON VENTURES 3 LLC,,"520 East Cooper Avenue, Suite LL3",Aspen,CO,81611,,
COOPER MASON VENTURES LLC,SILVERPEAK APOTHECARY,"520 East Cooper Avenue, Suite LL2",Aspen,CO,81611,,
CPM LAKEWOOD LLC,COMPASSIONATE PAIN MANAGEMENT,11950 W. Colfax,Lakewood,CO,80215,,
CRAIG APOTHECARY,CRAIG APOTHECARY,611 Breeze Street,Craig,CO,81625,,
CRESTED BUTTE WELLNESS CENTER LLC,,"329 Belleview, Unit A",Crested Butte,CO,81224,,
CROSS ROADS MEDICAL MARIJUANA CENTER LLC,THE 64 STORE,502 West Colorado Avenue,Colorado Springs,CO,80907,,
CROSSPOINT 3132 LLC,CROSSPOINT MEDICAL CENTER,"3132 West Colorado Avenue,",Colorado Springs,CO,80904,,
CT LLC,CANNABIS THERAPEUTICS,907 East Fillmore Street,Colorado Springs,CO,80907,,
CURE MEDICAL PHARM INC,RIVERROCK,"990 West 6th Avenue, Unit 5,",Denver,CO,80204,,
CYS INC,CYS INC,1675 Jetwing Drive,Colorado Springs,CO,80916,,
D and C MEDICAL MARIJUANA LLC,GOLDEN LEAF,1755 Lincoln Avenue,Steamboat Springs,CO,80487,,
DACONO MEDS LLC,SEDGWICK ALTERNATIVE RELIEF,107 Main Avenue,Sedgwick,CO,80749,,
DACONO MEDS LLC,DACONO MEDS,"730 Glen Creighton Drive, Unit C",Dacono,CO,80514,,
DAVID KRZYSZTOFIAK LLC,THE HERBAL ALTERNATIVE,1531 Lebanon Road,Cortez,CO,81321,,
DAY DREAMZ LLC,DAY DREAMZ,"1805 Santa Fe Drive, Suites D, E, F & G",Pueblo,CO,81006,,
DEEP GREEN RIVER LLC,DEEP GREEN RIVER LLC,1155 South Cherokee Street,Denver,CO,80223,,
DELANY & ASSOCIATES LLC,GOOD EARTH MEDS,"600 Cloman Blvd, Unit #1",Pagosa Springs,CO,81147,,
DELILAH LLC,,753 Vance Drive,Telluride,CO,81435,,
DELILAH LLC,,115 W Colorado Avenue,Telluride,CO,81435,,
DELTA 9 ALTERNATIVE MEDICINE LLC,STICKY BUDS,2262 South Broadway,Denver,CO,80210,,
DENCO LLC,DENCO LLC,5155 East 46th Avenue,Denver,CO,80216,,
DENCO LLC,,"3460 Park Avenue West, Unit D",Denver,CO,80216,,
DENVER DISPENSARY LLC,,4975 Vasquez Boulevard,Denver,CO,80216,,
DENVER PATIENTS CENTER LLC,"IHC, SANTE'",2070 South Huron Street,Denver,CO,80223,,
DENVER PATIENTS GROUP LLC,,"2863 Larimer Street, Suite B",Denver,CO,80205,,
DENVER RELIEF LLC,DENVER RELIEF LLC,"1 Broadway, #A150",Denver,CO,80203,,
DGS INC,The Kind Room,1881 South Broadway,Denver,CO,80210,,
DISCOUNT MEDICAL MARIJUANA LLC,DISCOUNT MEDICAL MARIJUANA LLC,2028 E Colfax Ave,Denver,CO,80206,,
DISCOUNT MEDICAL MARIJUANA LLC,DISCOUNT MEDICAL MARIJUANA LLC,970 Lincoln Street,Denver,CO,80203,,
DKC LLC,DENVER KUSH CLUB,2615 Welton Street,Denver,CO,80205,,
DOCTORS ORDERS LLC,DOCTORS ORDERS,1406 West 38th Avenue,Denver,CO,80211,,
DR. RELEAF INC,DR. RELEAF INC,2639 East Willamette Avenue,Colorado Springs,CO,80909,,
DURANGO ALTERNATIVE LLC,ROCKY MOUNTAIN HIGH,"48 CR 250, Units 106 &108",Durango,CO,81301,,
DURANGO HEALING CENTER LLC,,"555 South Camino Del Rio, Suite C1A",Durango,CO,81303,,
DURANGO ORGANICS LLP,DURANGO ORGANICS LLP,72 Suttle Street #F,Durango,CO,81303,,
EAGLES NEST WELLNESS CENTER,,8455 W. Hwy 24,Cascade,CO,80809,,
EAST WEST ALTERNATIVE MEDICINE LLLP,,"1905 North Academy Boulevard, Suite 102B",Colorado Springs,CO,80909,,
ECOMED LLC,NATURES MEDICINE; NATURES MEDICINE SALIDA,"230 West 16th Street, Suite C",Salida,CO,81201,,
ELITE ORGANICS LLC,ELITE ORGANICS,"804 South College Avenue, Suite C",Fort Collins,CO,80524,,
EMERALD CITY WELLNESS LLC,,"2606 West Colorado Avenue, Suite 200",Colorado Springs,CO,80904,,
ENLIGHTENED CARE LLC,,1330 West Garden of the Gods Road,Colorado Springs,CO,80907,,
ERINCARE LLC,THE TREE HOUSE,34 Buchanan Street,Colorado Springs,CO,80908,,
EVERGREEN APOTHECARY LLC,,1568 South Broadway,Denver,CO,80210,,
EVOLUTIONARY HOLDINGS LLC,ELEMENT FOUR20,82 South Federal Boulevard,Denver,CO,80219,,
EZ NATURAL ALTERNATIVES LLC,,3475 PINE TREE SQUARE SUITE E,Colorado Springs,CO,80909,,
FLAVORED ESSENTIALS LLC,FLAVORED ESSENTIALS LLC,3955 Oneida Street,Denver,CO,80207,,
FLOOBIES LLC,GAIA,417 North Circle Drive,Colorado Springs,CO,80909,,
FLOWER POWER BOTANICALS LLC,,1308 Duff Drive,Fort Collins,CO,80524,,
FOUR SCORE LLC,DISCREET TREATS,"101 North Tejon, Suite 102",Colorado Springs,CO,80903,,
FOX STREET WELLNESS,ALTAI,4773 Fox Street,Denver,CO,80216,,
F-SQUARED INDUSTRIES LLC,WELLNESS CENTER OF DENVER,330 S Dayton Street,Denver,CO,80247,,
GAME 7 LLC,PINK HOUSE COLORADO SPRINGS,700 Juanita Street,Colorado Springs,CO,80909,,
GARCIA & MAESTAS INC,LA CASA CANNABIS II,5986 Budweiser Way,Alamosa,CO,81101,,
GG MERCANTILE LLC,HIGHER EXPECTATIONS,1332 South Cherokee Street,Denver,CO,80223,,
GMC LLC,GREEN MAN CANNABIS,"1355 Santa Fe Drive, Suite F",Denver,CO,80204,,
GMC LLC,GREEN MAN CANNABIS,7289 East Hampden Avenue,Denver,CO,80224,,
GOLDEN MEDS INC,GOLDEN MEDS INC,4620 Peoria Street,Denver,CO,80239,,
GREEN AND HEALTHY WELLNESS LLC,,212 South 21st Street,Colorado Springs,CO,80904,,
GREEN AROUND YOU LLC,A MEDICAL MARIJUANA DISPENSARY,"970 South Onieda, Suite 17",Denver,CO,80224,,
GREEN CROSS LLC,GREEN CROSS OF CHERRY CREEK,"3400 South Oneida Way, Suite 101,",Denver,CO,80224,,
GREEN EARTH WELLNESS CENTER LLC,,519 North 30th Street,Colorado Springs,CO,80904,,
GREEN EARTH WELLNESS INC,THE GREEN SOLUTION,"389 Wadsworth Boulevard, Suite B",Lakewood,CO,80226,,
GREEN ESSENTIALS MEDICAL LLC,,1420 Devereux Road,Glenwood Springs,CO,81601,,
GREEN ESSENTIALS MEDICAL LLC,GREEN ESSENTIALS MEDICAL LLC,400 East Hyman Avenue,Aspen,CO,81611,,
GREEN FIELDS LLC,GREEN FIELDS LLC,1798 West Mississippi Avenue,Denver,CO,80223,,
GREEN GRASS LLC,,440 Lawrence Street,Central City,CO,80427,,
GREEN LEAF LLC,,"2280 South Quebec Street, Suite G",Denver,CO,80231,,
GREEN LIFE SOLUTIONS LLC,GREEN TREE MEDICINALS,"10575 Melody Drive, Suite 101",Northglenn,CO,80234,,
GREEN MEADOWS DISPENSARY LLC,,23360 South Highway 550,Montrose,CO,81403,,
GREEN MEADOWS WELLNESS LLC,INFINITE WELLNESS CENTER,"1701 Kipling Street, Unit 104,",Lakewood,CO,80215,,
GREEN MEADOWS WELLNESS LLC,INFINITE WELLNESS CENTER,900 North College Avenue,Fort Collins,CO,80524,,
GREEN MEDICALS INC,BUDDY BOY,777 Umatilla Street,Denver,CO,80204,,
GREEN MEDICALS INC,BUDDY BOY,"5115 North Federal Boulevard, #9",Denver,CO,80221,,
GREEN MEDICALS INC,BUDDY BOY,155 North Federal Boulevard,Denver,CO,80219,,
GREEN MEDICALS INC.,BUDDY BOY,120 South Kalamath Street,Denver,CO,80223,,
GREEN MEDICALS WELLNESS CENTER #5 LLC,CANNABIS CARE WELLNESS CENTER,"5740 South College, #C",Fort Collins,CO,80524,,
GREEN MEDICINE LLC,GREEN MEDICINE WELLNESS,1030 Grand Avenue,Glenwood Springs,CO,81601,,
GREEN MOUNTAIN CARE GROUP LLC,GREEN MOUNTAIN CARE,5423 South Prince Street,Littleton,CO,80120,,
GREEN NATURAL SOLUTIONS INC,,716 Grand Avenue,Glenwood Springs,CO,81601,,
GREEN PHARM LLC,GREEN PHARM LLC,325 Delaware Drive,Colorado Springs,CO,80909,,
GREEN THUMB ORGANICS INC,,4945 Pearl St,Denver,CO,80216,,
GREENER PASTURE COMPASSION CENTER LLC,VERDE,5101 East Colfax Avenue,Denver,CO,80220,,
GREENWERKZ LLC,,5840 West 25th Avenue,Edgewater,CO,80214,,
GREENWERKZ LLC,,2922 South Glen Avenue,Glenwood Springs,CO,81601,,
GROW LIFE LLC,,1516 Dustry Drive,Colorado Springs,CO,80905,,
H&J SERVICES INC,HERBS MEDICINALS INC (DENVER CANNA CLUB LLC #3),1015 North 2nd. Street,Berthoud,CO,80513,,
HADCAV ENTERPRISES INC,,5702 East Colfax Avenue,Denver,CO,80220,,
HAMME-BASTI LLC,NATURAL MYSTIC WELLNESS CENTER,204 E. Main Street,Buena Vista,CO,81211,,
HAPPY BUDDHA WELLNESS CENTER LLC,HAPPY BUDDHA WELLNESS CENTER LLC,"3612 Galley Road, Unit C",Colorado Springs,CO,80909,,
HCH2 LLC,HCH2 LLC,40 South Main Street,Alma,CO,80420,,
HCH3 LLC,THE HIGHWAY,1221 County Road 308,Dumont,CO,80436,,
HEADQUARTERS EMPORIUM AND DISPENSARY,HEADQUARTERS EMPORUIM AND DISPENSARY,138 East Main Street,Lyons,CO,80540,,
HEALING HOUSE LAKEWOOD,,10712 West Alameda Avenue,Lakewood,CO,80226,,
HEALTH DEPOT LLC,STICKY BUDS COLFAX,4615 East Colfax Avenue,Denver,CO,80220,,
HEAVENLY MEDICAL INC,HEAVENLY MEDICAL CAREGIVER,5323 Montbello Lane,Colorado Springs,CO,80918,,
HERBAL ALTERNATIVES LLC,NEW BROADSTERDAM,2568 South Broadway,Denver,CO,80210,,
HERBAL CONNECTIONS LLC,HERBAL CONNECTIONS LLC,2209 West 32nd Avenue,Denver,CO,80211,,
HERBAL ELEMENTS LLP,,"41184 US Hwy 6, Suite 190",Avon,CO,81620,,
HERBAL HEALTH LLC,LOCAL PRODUCT OF COLORADO,"419 West 13th Avenue,",Denver,CO,80204,,
HERBAL OPTIONS LLC,GOOD MEDS,"3431 South Federal Blvd, Unit G",Englewood,CO,80110,,
HERBAL OUTFITTERS LLC,GREEN MEDICINE WELLNESS,109 W. 4th Street,Rifle,CO,81650,,
HERBAL WELLNESS,SWEET LEAF,4379 Tejon Street,Denver,CO,80211,,
HERBAL WELLNESS LLC,HERBAL WELLNESS,"400 West South Boulder Road, Suite 2700,",Lafayette,CO,80026,,
HERBS NEST LLC,HERB HERB HERB IS THE WORD,3900 East 48th Avenue,Denver,CO,80216,,
HERIKAT INC,ROSE BUD PRODUCTIONS,"27050 East US Highway 50, Suite B2",Pueblo,CO,81006,,
HERITAGE ORGANICS LLC,,"401 Broadway, Suite A",Penrose,CO,81240,,
HIGH COUNTRY SUPPLY LLC,COLORADO HARVEST COMPANY,1178 South Kalamath Street,Denver,CO,80223,,
HIGH MOUNTAIN MEDZ LLC,LEVITY WELLNESS,426 West Fillmore Street,Colorado Springs,CO,80907,,
"HIGH STREET GROWERS, LLC",HIGH STREET GROWERS,330 Federal Boulevard,Denver,CO,80219,,
HIGHLANDS WELLNESS CENTER LLC,THE CLINIC HIGHLANDS,3460 West 32nd Avenue,Denver,CO,80211,,
HOBBY FARMS LLC,A CUT ABOVE,1911 South Broadway,Denver,CO,80210,,
HOLLY MEDICINAL SERVICES LLC,THE CLINIC COLORADO,"3888 East Mexico Avenue, Suite 110",Denver,CO,80210,,
HOSHTA LLC,NEW HORIZONS,1460 Woolsey Heights,Colorado Springs,CO,80915,,
HUMBOLDT CARE AND WELLNESS CENTER LLC,NEW AGE MEDICAL LLC,1324 Garden of the Gods Road West,Colorado Springs,CO,80907,,
HUMBOLDT CARE AND WELLNESS CENTER LLC,NEW AGE MEDICAL LLC,6823 Space Village Avenue,Colorado Springs,CO,80915,,
I & S LLC,CANNAMART,1086 West Littleton Boulevard,Littleton,CO,80120,,
INDOOR HORTICULTURE CENTERS LLC,SANTE,742 1/2 Main Avenue,Durango,CO,81301,,
INDY 2 LLC,INDISPENSARY,3044 West Colorado Avenue,Colorado Springs,CO,80904,,
INDY 3 LLC,INDISPENSARY,3031 East Platte Avenue,Colorado Springs,CO,80909,,
IVITA WELLNESS LLC,,3980 Franklin Street,Denver,CO,80205,,
IVITA WELLNESS LLC,IVITA WELLNESS LLC,1660 Pearl Street,Denver,CO,80203,,
J & J MOUNTAIN MEDICALS LLC,J & J MOUNTAIN MEDICALS LLC,11505 US HWY 24 WEST,Divide,CO,80814,,
J and J ENTERPRISES INC,Pagosa Organic Therapeutics,"298 Bastille Drive, #A7, A9",Pagosa Springs,CO,81147,,
"J&R PARTNERS, LLC",NATIVE ROOTS VAIL,042190 Highway 6,Avon,CO,81620,,
JDC LLC,A Kind Place,938 North College Avenue,Fort Collins,CO,80526,,
JEM DUTCH ACRES LLC,CLOUD CITY COMPASSIONATE CARE,"1013 Poplar Street, Suite 1",Leadville,CO,80461,,
JGB VENTURES LLC,DANK LLC,"3835 Elm Street, Suites B & C",Denver,CO,80207,,
JMC ENTERPRISES INC,FREMONT COUNTY CANNABIS,1505 Elm Avenue,Canon City,CO,81212,,
JOIS LLC,CANNAMART,"3700 West Quincy Avenue, #3702",Denver,CO,80236,,
"JP WELLNESS, LLC",,1741 South Academy Boulevard,Colorado Springs,CO,80916,,
JS INVESTMENTS LLC,JS INVESTMENTS LLC,401 16th Street,Denver,CO,80202,,
JTR CAREGIVERS LLC,HELPING HANDS HERBALS,"1021 Pearl Street, Unit B",Boulder,CO,80302,,
K.I.N.D. WELLNESS CENTER LLC,STASH,"300 AABC, Suite B",Aspen,CO,81611,,
KARMACEUTICALS LLC,,4 South Santa Fe Drive,Denver,CO,80223,,
KAYAK CORPORATION,AMSTERDAM CAFE,1325 South Inca Street,Denver,CO,80223,,
KAZIMER LLC,BUD CELLAR,"1450 South Santa Fe Drive, Unit 102",Denver,CO,80223,,
KIND LOVE LLC,KL LLC,"3425 South Oleander Court, Suite B",Denver,CO,80224,,
KIND LOVE LLC,,4380 East Alameda Avenue,Glendale,CO,80246,,
KIND PAIN MANAGEMENT INC.,KIND PAIN MANAGEMENT,2636 Youngfield Street,Lakewood,CO,80215,,
KIND THERAPEUTICS INC,,1222 North Academy Boulevard,Colorado Springs,CO,80909,,
KIRKE LLC,THE HEMP CENTER COLORADO SPRINGS,"2501 West Colorado Avenue, Suite 106",Colorado Springs,CO,80904,,
"LA CASA CANNA""BIS"" INC",,205 Main Street,San Luis,CO,81152,,
LARSEN GROUP LLC,,"130 Maine Street, Suite B",Log Lane Village,CO,80705,,
L'EAGLE SERVICES LLC,L'EAGLE,380 Quivas Street,Denver,CO,80223,,
LIGHTSHADE LABS LLC,,3950 Holly Street,Denver,CO,80207,,
LINCOLN HERBAL INC,MILE HIGH DISPENSARY,424 Lincoln Street,Denver,CO,80203,,
LITTLE BROWN HOUSE,,1995 South Broadway,Denver,CO,80210,,
LITTLE GREEN PHARMACY INC,,1331 South Broadway,Denver,CO,80210,,
LIVE GREEN CONSULTING LLC,,4000 MORRISON ROAD,Denver,CO,80209,,
LIVWELL I LLC,LIVWELL,"2647 8th Avenue, Unit B",Garden City,CO,80631,,
LIVWELL II LLC,LIVWELL,570 North Murray Boulevard,Colorado Springs,CO,80915,,
LIVWELL III LLC,LIVWELL,2193 West Evans Avenue,Denver,CO,80223,,
LOTUS MEDICAL II LLC,,"3107 28th Street, Unit B",Boulder,CO,80304,,
LOTUS MEDICAL LLC,,1125 South Inca Street,Denver,CO,80223,,
LYONS FINEST CONFIDENTIAL CARE LLC,,4071 Ute Highway,Longmont,CO,80503,,
LYONS FINEST CONFIDENTIAL CARE LLC,TUMBLEWEED,11080 East 47th Avenue,Denver,CO,80239,,
MADISON ENTERPRISES LLC,PINK HOUSE CHERRY,"111 South Madison Street, Suite 111",Denver,CO,80209,,
MAGGIES FARM LLC,MAGGIE'S FARM,1424 South Nevada Avenue,Colorado Springs,CO,80906,,
MAGGIES FARM LLC,MAGGIE'S FARM,"74 North Component Drive, Suite 170",Pueblo West,CO,81007,,
MAGNA MARKETING INC,HERBS 4 YOU,20 East 9th Avenue,Denver,CO,80203,,
MAGNOLIA ROAD INC,MAGNOLIA ROAD CANNABIS COMPANY,"1750 30th Street, Unit 84",Boulder,CO,80301,,
MARI MEDS INC,,222 East Moreno Avenue,Colorado Springs,CO,80903,,
MARISOL THERAPEUTICS LLC,,922 East Kimble Drive,Pueblo West,CO,81007,,
MARTINS NATURAL MEDICINALS LLC,MEDICINE MAN OF GLENWOOD SPRINGS,"7800 Hwy 82, Unit 104",Glenwood Springs,CO,81601,,
MARYS LLC,MARY'S LLC,200 S. Sharp Avenue,Oak Creek,CO,80467,,
MASSAGE SPECIALISTS DENVER LLC,HERBAN MEDICINALS,"70 Broadway, Suite 50",Denver,CO,80203,,
MAYFLOWER GROUP LLC,THE HEALTH CENTER,1736 Downing Street,Denver,CO,80218,,
MBLDS LLC,DYL'S PLACE,"1101 Academy Court, Suite 4",Fort Collins,CO,80524,,
MBS WELLNESS CLINIC LLC,MIND BODY SPIRIT WELLNESS CLINIC,6745 West Mississippi,Lakewood,CO,80226,,
MED STOP LLP,DENVER MED STOP,5926 East Colfax Avenue,Denver,CO,80220,,
MEDIBIS LLC,,3701 North Nevada Avenue,Colorado Springs,CO,80907,,
MEDICAL CANNABIS CAREGIVERS INC,MC CAREGIVERS,"6020 Erin Park Drive, Unit A",Colorado Springs,CO,80918,,
"MEDICAL CANNABIS COLORADO, LLC","MEDICAL CANNABIS COLORADO, LLC","6200 East Yale Avenue, Unit B",Denver,CO,80222,,
MEDICAL MARIJUANA OF THE ROCKIES LLC,,"720 Summit Boulevard, Suite 101A",Frisco,CO,80443,,
MEDICAL MJ SUPPLY LLC,Medical MJ Supply,4800 Lamar Street,Wheat Ridge,CO,80033,,
MEDICAL MJ SUPPLY LLC,MEDICAL MJ SUPPLY,4845 Van Gordon Street,Wheat Ridge,CO,80033,,
MEDICAL MJ SUPPLY LLC,BEST COLORADO MEDS,810 North College Avenue,Fort Collins,CO,80524,,
MEDICINAL WELLNESS CENTER LLC,MEDICINAL OASIS LLC,6359 East Evans Avenue,Denver,CO,80222,,
MEDICINE MAN LLC,EMERALD MEDICINE,4966 Leetsdale Drive,Glendale,CO,80246,,
MEDICINE MAN PRODUCTION CORPORATION,MEDICINE MAN DENVER,"4750 Nome Street, Suite B",Denver,CO,80239,,
METRO CANNABIS INC,METRO INC,8151 East Colfax Avenue,Denver,CO,80220,,
METRO DENVER TELLURIDE HEALTH CENTER LLC,THE HEMP CENTER,2430 West Main Street,Littleton,CO,80120,,
METROPOLIS MEDICAL LLC,METROPOLIS MEDICAL,4600 Ironton Street,Denver,CO,80239,,
MHSDGO LLC,MEDICAL HORTICULTURAL SERVICES,"789 Tech Center Drive, Unit E",Durango,CO,81301,,
MIKE SQUARED LLC,BOULDER MARIJUANA COMPANY,"2111 30th Street, Unit A",Boulder,CO,80301,,
MILAGRO WELLNESS HEALING LLC,MIND BODY SPIRIT 2,2237 County Road 314,Idaho Springs,CO,80452,,
MILE HIGH DISPENSARY LLC,,"1350 South Sheridan Boulevard, Unit 1",Denver,CO,80232,,
MILE HIGH GREEN CROSS LLC,,852 North Broadway,Denver,CO,80203,,
MILE HIGH HOLISTICS LLC,MILE HIGH HOLSITICS LLC,198 County Line Road,Palmer Lake,CO,80133,,
MILE HIGH MEDICAL CANNABIS LLC,,1705 Federal Boulevard,Denver,CO,80204,,
MILE HIGH MEDICAL LLC,MMJ AMERICA DOWNTOWN,2042 Arapahoe Street,Denver,CO,80205,,
MILE HIGH REMEDIES LLC,DOCTOR'S ORDERS,2106 East Boulder Street,Colorado Springs,CO,80909,,
MILE HIGH THERAPEUTIC NETWORK LLC,MILE HIGH THERAPEUTICS,1568 South Federal Boulevard,Denver,CO,80219,,
MILE HIGH WELLNESS II LLC,MILE HIGH WELLNESS-GREEN STREET,2291 South Kalamath Street,Denver,CO,80223,,
MILE HIGH WELLNESS LLC,MILE HIGH WELLNESS,3525 South Tamarac Drive Suite 110,Denver,CO,80237,,
MMCC LLC,MEDICAL MARIJUANA CENTER OF CARBONDALE,60 North 3rd Street,Carbondale,CO,81623,,
MMD OF COLORADO LLC,MMD OF COLORADO LLC,2609 Walnut Street,Denver,CO,80205,,
MMD OF COLORADO LLC,,3954 Williams Street,Denver,CO,80205,,
MMJ AMERICA INC,BOULDER MMJ,"1909 Broadway Street, Suite LL,",Boulder,CO,80305,,
MML LLC,HOLISTIC HEALTHCARE,0105 Edwards Village Blvd E202,Edwards,CO,81632,,
MMST LLC,WELLSPRING COLLECTIVE,1724 South Broadway,Denver,CO,80210,,
MODERN MEDICINE LLC,ALTITUDE ORGANIC MEDICINE,523 South Tejon Street,Colorado Springs,CO,80905,,
MOTHER NATURES MIRACLE LLC,,315 West Littleton Boulevard,Littleton,CO,80120,,
MOUNTAIN HIGH WELLNESS III LLC,COLORADO HARVEST MOON,1890 South Wadsworth Boulevard,Lakewood,CO,80232,,
MOUNTAIN MED CLUB LLC,,22 South Chestnut Street,Colorado Springs,CO,80905,,
MOUNTAIN MEDICINALS INC,MOUNTAIN MEDICINALS WELLNESS CENTER,"1800 Colorado Boulevard, Suite 5,",Idaho Springs,CO,80452,,
MR GOOD BUDZ LLC,HOLISTIC LIFE,1395 South Sheridan Boulevard,Lakewood,CO,80232,,
NATURAL ALTERNATIVES FOR HEALTH LLC,NATURAL ALTERNATIVES FOR HEALTH,"6712 South College Avenue, #5",Fort Collins,CO,80525,,
NATURAL ALTERNATIVES FOR LIFE LLC,NATURAL ALTERNATIVES FOR LIFE LLC,1090 North 2nd Street,Berthoud,CO,80513,,
NATURAL CHOICE CO-OP,,"2835 Downhill Plaza, Unit 603,",Steamboat Springs,CO,80487,,
NATURAL MYSTIC CANNABIS CAREGIVERS LLC,NATURAL MYSTIC CANNABIS CAREGIVERS LLC,"416 E. Colorado Avenue, Suite 101",Colorado Springs,CO,80903,,
NATURES BEST LLC,,4601 East Mississippi Avenue,Glendale,CO,80246,,
NATURES CURE III LLC,,"1500 East Colfax Avenue,",Denver,CO,80218,,
NATURES CURE LLC,,4283 West Florida Avenue,Denver,CO,80219,,
NATURES HERBS & WELLNESS CENTER,NATURES HERBS & WELLNESS CENTER,522 27th Street,Garden City,CO,80631,,
NATURES KISS CANNABIS SERVICES HEALTH & WELLNESS,NATURES KISS,4332 South Broadway,Englewood,CO,80113,,
NATURES OWN WELLNESS CENTER,,927 Highway 3,Durango,CO,81301,,
NATURES WAY WELLNESS CENTER INC,KUSH GARDENS,5012 North Academy Blvd,Colorado Springs,CO,80918,,
NATURES WAY WELLNESS CENTER INC,KUSH GARDENS,"2815 North El Paso Street, Unit D",Colorado Springs,CO,80907,,
NEW AGE MEDICAL LLC,NEWAGE MEDICAL LLC,2553 Sheridan Boulevard,Edgewater,CO,80214,,
NEW WORLD ALTERNATIVE HEALTHCARE LLC,,135 South Spruce Street,Telluride,CO,81435,,
"NORTH FEDERAL, LLC",THE GROVE,74 Federal Boulevard,Denver,CO,80219,,
NORTHERN LIGHTS NATURALS LLC,NORTHERN LIGHTS CANNABIS CO.,"2045 Sheridan Boulevard, Suite B",Edgewater,CO,80214,,
NUTRITIONAL ELEMENTS INC,THE HEALTH CENTER,2777 South Colorado Boulevard,Denver,CO,80222,,
NUTRITIONAL SUPPLEMENTS LLC,PEACE IN MEDICINE CENTER,2647 W. 38th Avenue,Denver,CO,80211,,
NUTRITIONAL SUPPLEMENTS LLC,RED EYED RAM,"1228 W. Elizabeth Street, Unit D8",Ft Collins,CO,80521,,
O LIMITED,THE CANARYS SONG,1 W 1st Street Suite 1D,Nederland,CO,80466,,
OPTIONS MEDICAL CENTER LLC,COLORADO CULTIVATORS ASSOCIATION,1534 55th Street,Boulder,CO,80301,,
OPTIONS MEDICAL CENTER WR LLC,,9085 West 44th Avenue,Wheat Ridge,CO,80033,,
ORGANIC ALTERNATIVES LLC,Organic Alternatives LLC,346 E Mountain Avenue,Ft Collins,CO,80524,,
ORGANIC GREENS INC,NATURAL REMEDIES,1620 Market Street,Denver,CO,80202,,
ORGANIC SOLUTIONS INC,,"74 North McCulloch Boulevard, Suite 120,",Pueblo West,CO,81007,,
ORGANIC WELLNESS DISPENSARY LLC,GREEN TREE MEDICINALS,"5565 Arapahoe Avenue, Suite G",Boulder,CO,80303,,
ORGANIX LLC,BRECKENRIDGE ORGANIX,"1795 Airport Road, Suite A2",Breckenridge,CO,80424,,
ORIGINAL CANNABIS GROWERS LLC,,2625 East St. Vrain #A,Colorado Springs,CO,80909,,
P&C EXPRESS LLC,COLOMED,4860 North Townsend Avenue,Montrose,CO,81401,,
P2C3 LLC,THE SECRET STASH,"2845 Ore Mill Road, Unit 6",Colorado Springs,CO,80904,,
PAIN MANAGEMENT OF GOVERNORS PARK LLC,THE CLINIC CAPITAL HILL,745 East 6th Avenue,Denver,CO,80203,,
PAIN MANAGEMENT SOLUTIONS LLC,PAIN MANAGEMENT SOLUTIONS LLC,1022 South Royer Street,Colorado Springs,CO,80903,,
PATIENTS CHOICE OF COLORADO LLC,PATIENTS CHOICE OF COLORADO,7063 West Colfax Avenue,Lakewood,CO,80214,,
PATIENTS CHOICE OF COLORADO LLC,PATIENTS CHOICE OF COLORADO,2251 S. Broadway,Denver,CO,80203,,
PATIENTS PLUS LLC,EARTH GROUP COLORADO,4493 Washington Street,Denver,CO,80215,,
PEAK HOLDINGS GROUP LLC,PEAK,260 Broadway,Denver,CO,80203,,
PEARL CENTER LLC,PINK HOUSE PEARL,1445 South Pearl Street,Denver,CO,80210,,
PERSONALIZED ORGANIC TREATMENTS LLC,PERSONALIZED ORGANIC TREATMENTS,219 Vallejo Street,Denver,CO,80223,,
PHYSICIAN PREFERRED PRODUCTS LLC,,2100 East 112th Avenue Suite 5,Northglenn,CO,80233,,
PIKES PEAK ALTERNATIVE HEALTH & WELLNESS CENTER INC.,,"1605 South Tejon Street, Suite 101",Colorado Springs,CO,80905,,
PIKES PEAK CANNABIS CAREGIVERS LLC,PIKES PEAK CAREGIVERS,3715 Drennan Road,Colorado Springs,CO,80910,,
PLATTE VALLEY DISPENSARY LLC,,"2301 7th Street, Suite B",Denver,CO,80211,,
PND LLC,A CUT ABOVE,1150 East Fillmore Street,Colorado Springs,CO,80907,,
POSTMODERN HEALTH LLC,,5660 West Alameda Avenue,Lakewood,CO,80226,,
PREFERRED ORGANIC THERAPY & WELLNESS LLC,PREFERRED ORGANIC THERAPY & WELLNESS,1569 South Colorado Blvd,Denver,CO,80222,,
PRISY & ASSOCIATES LLC,THE HEALTHY CONNECTIONS,1602 West Colorado Avenue,Colorado Springs,CO,80904,,
PUEBLO WEST ORGANICS LLC,,"609 East Enterprise Drive, Suite 140",Pueblo West,CO,81007,,
PURE MEDICAL LLC,,19 North Tejon Street Suite 108,Colorado Springs,CO,80903,,
PURE MEDICAL LLC,,"207 Rockrimmon Blvd, Unit C",Colorado Springs,CO,80919,,
QUALITY CHOICE ALTERNATIVE CARE CENTER LLC,QUALITY CHOICE,2398 East Boulder Street,Colorado Springs,CO,80909,,
RIFLE MOUNTAIN LLC,"RIFLE MOUNTAIN DISPENSARY, INC.",124 West 3rd Street,Rifle,CO,81650,,
RIFLE REMEDIES LLC,GREEN CROSS RIFLE,"120 East Third Street, Suite A",Rifle,CO,81650,,
RINO SUPPLY CO INC,RINO SUPPLY CO INC.,3100 Blake Street,Denver,CO,80205,,
RIVERROCK LLC,RIVERROCK,4935 York Street,Denver,CO,80216,,
RIVERSIDE WELLNESS LLC,RIVERSIDE WELLNESS,3722 Chestnut Place,Denver,CO,80216,,
RK ENTERPRISES LTD,ROCKY MOUNTAIN REMEDIES,"2730 Downhill Plaza, #106",Steamboat Springs,CO,80487,,
RMCR CORPORATION,BOULDER BOTANICS,"1750 30th Street, Unit 7",Boulder,CO,80301,,
RME GROUP LLC,,7739-7741 East Colfax Avenue,Denver,CO,80220,,
RMIG LLC,THE BUD DEPOT,138 Main Street,Lyons,CO,80540,,
ROCKY MOUNTAIN CANNABIS INC,,465 Valley Road,Canon City,CO,81212,,
ROCKY MOUNTAIN CAREGIVERS INC,THE GREEN SOLUTION,2601 West Alameda Avenue,Denver,CO,80219,,
ROCKY MOUNTAIN FARMACY INC,,2420 South Colorado Boulevard,Denver,CO,80222,,
ROCKY MOUNTAIN FARMACY INC,THE SHELTER,4095 Jackson Street,Denver,CO,80216,,
"ROCKY MOUNTAIN HIGH MMJ, LLC",HIGHER GROUND MMC,2215 East Mississippi Avenue,Denver,CO,80210,,
ROCKY MOUNTAIN HIGH PAIN MANAGEMENT INC,ROCKY MOUNTAIN HIGH PAIN MANAGEMENT INC,"0105 Edwards Village Blvd, Unit C104",Edwards,CO,81632,,
ROCKY MOUNTAIN MEDICAL LLC,,616 Arrawanna Street,Colorado Springs,CO,80909,,
ROCKY MOUNTAIN MIRACLES LLC,,2316 East Bijou Street,Colorado Springs,CO,80909,,
ROCKY MOUNTAIN ORGANIC MEDICINE INC,,511 Orchard Street,Golden,CO,80401,,
ROCKY MOUNTAIN RETAIL MANAGEMENT LLC,ROCKY MOUNTAIN HIGH,11455 Washington Street,Northglenn,CO,80233,,
ROCKY MOUNTAIN WAYS LLC,GOOD MEDS LAKEWOOD,8420 West Colfax Avenue,Lakewood,CO,80215,,
ROCKY ROAD REMEDIES LLC,ROCKY ROAD NORTH,3995 North Academy Blvd.,Colorado Springs,CO,80917,,
ROCKY ROAD REMEDIES LLC,ROCKY ROAD WEST,1528-1530 South Nevada Avenue,Colorado Springs,CO,80906,,
ROCKY ROAD REMEDIES LLC,,586 South Academy Boulevard,Colorado Springs,CO,80910,,
SENSE OF HEALING LLC,,1005 Federal Blvd,Denver,CO,80204,,
SERENDIPITY ENTERPRISES INC,SATICA,"3480 S Galena Street, B-4",Denver,CO,80231,,
SERENE WELLNESS FRASER LLC,,228 Byers Avenue,Fraser,CO,80442,,
SERENITY MOON WELLNESS CENTER LLC,FROSTED LEAF,50 Lipan Street,Denver,CO,80223,,
SERENITY MOON WELLNESS CENTER LLC,FROSTED LEAF,6302 East Colfax Avenue,Denver,CO,80220,,
SISSCO LLC,TRENCHTOWN,734 Sheridan Boulevard,Denver,CO,80214,,
SKINNY PINEAPPLE INC,THE FARM,2801 Iris Avenue,Boulder,CO,80301,,
SLAM ENTERPRISES LLC,NATURALEAF,1004 S. Tejon Street,Colorado Springs,CO,80903,,
SOLACE MEDS LLC,SOLACE MEDS LLC,"301 Smokey Street, Unit A",Fort Collins,CO,80525,,
SOULSHINE MEDICAL CONSULTING LLC,,"1805 Airport Road, Unit B3",Breckenridge,CO,80424,,
"SOUTHERN COLORADO MEDICAL MARIJUANA, LLC","SoCo MMJ, LLC",3410 North Prospect Street,Colorado Springs,CO,80907,,
SOUTHWEST ALTERNATIVE CARE LLC,SOUTHWEST ALTERNATIVE CARE LLC,3937 West Colfax Avenue,Denver,CO,80204,,
STANDING AKIMBO LLC,ABLAZE,3801 West Jason Street,Denver,CO,80211,,
STONE TMC LLC,THE STONE DISPENSARY,4820 Morrison Road,Denver,CO,80219,,
SUMMIT WELLNESS LLC,SUMMIT WELLNESS,"2117 Larimer Street, #1",Denver,CO,80205,,
"SUNRISE SOLUTIONS, LLC",,43 Main Street,Bailey,CO,80421,,
SUSTAINABLE HEALTH LLC,14ER HOLISTICS,"2897 Mapleton Ave, Suite 800",Boulder,CO,80301,,
SWEET LEAF LLC,SWEET LEAF,5100 West 38th Avenue,Denver,CO,80212,,
SWEET LEAF PIONEER,,1286 Chambers Avenue #105,Eagle,CO,81631,,
SWEETWATER PARTNERS LLC,GOOD CHEMISTRY,330 E. Colfax Avenue,Denver,CO,80203,,
SWISS MEDICAL INDUSTRIES LLC,BUDDY BOY,4012 West 38th Avenue,Denver,CO,80212,,
TABLE MESA WELLNESS CENTER LLC,NORTH BOULDER WELLNESS CENTER,1495 Yarmouth Avenue,Boulder,CO,80304,,
TELLURIDE GREEN ROOM LLC,TELLURIDE GREEN ROOM,"250 S. Fir Street, Units 5 & 6",Telluride,CO,81435,,
TENBELLS INC,MEDICINE MEN NATURAL REMEDY,880 Marilyn,Penrose,CO,81240,,
TETRA HYDRO CENTER LLC,TETRA HYDRO CENTER,9206 E. Hampden Avenue,Denver,CO,80231,,
THE ACCEPTUS GROUP LLC,,"555 Rivergate Lane, Suite B2-135",Durango,CO,81301,,
THE CLONE STORE LLC,,755 South Federal Boulevard,Denver,CO,80219,,
THE DANDELION LLC,THE DANDELION,845 Walnut Street,Boulder,CO,80302,,
THE GENETIC LOCKER INC,,"5370 Manhattan Circle, Suite 104",Boulder,CO,80303,,
THE GIVING TREE OF DENVER LLC,THE GIVING TREE OF DENVER,2707 West 38th Avenue,Denver,CO,80211,,
THE GREEN HOUSE INC,,"410 S. 8th Street, Unit B",Colorado Springs,CO,80905,,
THE GREEN SOLUTION LLC,THE GREEN SOLUTION,470 Malley Drive,Northglenn,CO,80233,,
THE GREEN SOLUTION LLC,THE GREEN SOLUTION LLC,4400 Grape Street,Denver,CO,80216,,
THE GREENER SIDE CAREGIVING AND WELLNESS LLC,,3321 Interstate 25 South,Pueblo,CO,81004,,
THE GREENERSIDE WEST LLC,THE GREENERSIDE WEST,749 East Enterprise Drive,Pueblo West,CO,81007,,
THE GREENEST GREEN LLC,THE GREENEST GREEN,"5290 Arapahoe Avenue, Unit J",Boulder,CO,80303,,
THE HEALING CANNA LLC,,3692 East Bijou Street,Colorado Springs,CO,80909,,
THE HEALING CENTER OF COLORADO LLC,THE HEALING CENTER OF COLORADO,1452 Poplar Street,Denver,CO,80220,,
THE HEALING HOUSE LLC,GREEN CROSS CLINIC,4925 Federal Boulevard,Denver,CO,80221,,
THE HERB SHOPPE LLC,THE HERB SHOPPE LLC,"3020 West Colorado Avenue, Suite C & D",Colorado Springs,CO,80904,,
THE HERBAL CENTER LLC,,1909 South Broadway,Denver,CO,80210,,
THE HERBAL CURE LLC,,985 South Logan Street,Denver,CO,80209,,
THE KINE MINE LLC,,2818 Colorado Boulevard,Idaho Springs,CO,80452,,
THE MEDICINE MAN LLC,THE MEDICINE MAN LLC,310 East Main Street,Cortez,CO,81321,,
THE ORGANIC SEED LLC,,2304 East Platte Avenue,Colorado Springs,CO,80909,,
THE ORGANIC SEED LLC,CANNASSEUR,41 North Precision Drive,Pueblo West,CO,81007,,
THE PURPLE DRAGON LLC,,2243 Federal Boulevard,Denver,CO,80211,,
THE RELEAF CENTER LLC,,2000 W 32ND AVE,Denver,CO,80211,,
THE TEA POT LLC,PINK HOUSE MILE HIGH,2008 Federal Boulevard,Denver,CO,80211,,
THIRD DAY APOTHECARY,,4865 North Academy Blvd.,Colorado Springs,CO,80918,,
TIMBERLINE HERBAL CLINIC AND WELLNESS CENTER LLC,,3995 East 50th Avenue,Denver,CO,80216,,
TMED LLC,,7200 Smith Road,Denver,CO,80207,,
TODAYS HEALTH CARE II LLC,TODAYS HEALTH CARE II LLC,2103 East Platte Avenue,Colorado Springs,CO,80909,,
TODAYS HEALTH CARE II LLC,TODAYS HEALTH CARE II LLC,225 South 8th Street,Colorado Springs,CO,80905,,
TODAYS HEALTH CARE LLC,,286 South Purcell Boulevard,Pueblo West,CO,81007,,
TODAYS HEALTH CARE LLC,,975 West Fillmore Street,Colorado Springs,CO,80907,,
TREATMENTS UNLIMITED LLC,ALTITUDE EAST,6858 East Evans Avenue,Denver,CO,80224,,
TREE LINE PREMIER BOULDER LLC,LIVWELL,3000 Folsom Street,Boulder,CO,80304,,
TREE LINE PREMIER NEDERLAND LLC,TREE LINE PREMIER,"40801 US Highway 6 & 24, Suite 5",Avon,CO,81620,,
TREE LINE PREMIER NEDERLAND LLC,NEDICATE,"150 North Jefferson St, Suite B3",Nederland,CO,80466,,
TREE OF WELLNESS INC,TREE OF WELLNESS,"1000 West Fillmore Street, Suite 105",Colorado Springs,CO,80907,,
TRICHOME HEALTH CONSULTANTS,,2117 West Colorado Avenue,Colorado Springs,CO,80904,,
TRILL THERAPEUTICS LLC,TRILL ALTERNATIVES,1537 Pearl Street Suite B,Boulder,CO,80302,,
TRUE EARTH MEDICINE LLC,,1104 East Main Street,Cortez,CO,81321,,
TZ FINANCIAL LLC,HIGH COUNTRY HEALING,"191 Blue River Parkway, Suite 202",Silverthorne,CO,80498,,
UNIQUEITMINDS INC,CHRONORADO MEDICAL,"6625 Leetsdale Drive, Suite A",Denver,CO,80224,,
UNIVERSAL HERBS LLC,,800 Park Avenue West,Denver,CO,80205,,
URBAN CANNABIS LLC,,2383 South Downing Street,Denver,CO,80210,,
URBAN HEALTH & WELLNESS,URBAN DISPENSARY,2675 West 38th Avenue,Denver,CO,80211,,
VERTS LLC,VERTICAL,"1240 West Elizabeth Street, Suite C",Fort Collins,CO,80521,,
VERY BEST MEDICINE LLC,,6853 Leetsdale Drive,Denver,CO,80224,,
VIRTUAL MARKETING LLC,MAGGIES FARM,"3055 East Highway 50, Unit F",Canon City,CO,81212,,
VITA MEDS LLC,MR. NICEGUYS,"2000 South Dahlia Street, Suite 250",Denver,CO,80222,,
VIVA DIVA DI VENTI LLC,DISCREET TREATS,"288 South Academy Boulevard, Suite C",Colorado Springs,CO,80910,,
WALKING RAVEN LLC,,2001 South Broadway,Denver,CO,80210,,
WANNA LLC,STICKY BUDS ALAMEDA,183 West Alameda Avenue,Denver,CO,80223,,
WELLNESS CENTERS OF COLORADO LLC,A-WELLNESS CENTERS,2918 Wood Avenue,Colorado Springs,CO,80907,,
WESTERN REMEDIES LLC,WESTERN REMEDIES,777 Canosa Court #102,Denver,CO,80204,,
WESTERN SLOPE CAREGIVERS LLC,WESTERN SLOPE CAREGIVERS,120 West 4th Street,Rifle,CO,81650,,
WESTSIDE WELLNESS CENTER LLC,MAGGIES FARM,818 E. Filmore,Colorado Springs,CO,80907,,
WHITE MOUNTAIN MEDICINE LLC,LIVWELL,3234 North Nevada Avenue,Colorado Springs,CO,80907,,
WILLOW NORTH LLC,Beacon Wellness Group II,385 North Willow,Mancos,CO,81328,,
WTJ FAMILY ENTERPRISES LLC,WTJ MMJ SUPPLY,1347 North Academy Blvd,Colorado Springs,CO,80909,,
XG PLATINUM INC,,2506 6th Avenue,Garden City,CO,80631,,